{"type": "FeatureCollection", "features": [ {"type": "Feature", "properties": {"norad_id": 30928, "name": "FENGYUN 1C DEB", "group": "fengyun-1c-debris", "lat": 20.6390867401102, "lon": -87.8699995351825, "alt_km": 1500.7358133900243, "timestamp": "2025-12-27T15:27:11.470254+00:00", "meta": {"OBJECT_NAME": "FENGYUN 1C DEB", "OBJECT_ID": "1999-025AZS", "EPOCH": "2025-12-26T17:37:41.302848", "MEAN_MOTION": 13.22258776, "ECCENTRICITY": 0.0449838, "INCLINATION": 98.8822, "RA_OF_ASC_NODE": 87.9777, "ARG_OF_PERICENTER": 357.5686, "MEAN_ANOMALY": 153.3904, "EPHEMERIS_TYPE": 0, "CLASSIFICATION_TYPE": "U", "NORAD_CAT_ID": 30928, "ELEMENT_SET_NO": 999, "REV_AT_EPOCH": 90533, "BSTAR": 0.0012328775, "MEAN_MOTION_DOT": 8.4e-06, "MEAN_MOTION_DDOT": 0}, "tle": {"line1": "1 30928U 99025AZS 25360.73450582  .00000840  00000+0  12329-2 0  9997", "line2": "2 30928  98.8822  87.9777 0449838 357.5686 153.3904 13.22258776905330"}}, "geometry": {"type": "Point", "coordinates": [-87.8699995351825, 20.6390867401102]}}, {"type": "Feature", "properties": {"norad_id": 30930, "name": "FENGYUN 1C DEB", "group": "fengyun-1c-debris", "lat": -12.498370449363495, "lon": 31.107791656894968, "alt_km": 749.7006184895572, "timestamp": "2025-12-27T15:27:11.470264+00:00", "meta": {"OBJECT_NAME": "FENGYUN 1C DEB", "OBJECT_ID": "1999-025AZU", "EPOCH": "2025-12-26T01:20:20.657760", "MEAN_MOTION": 14.37418558, "ECCENTRICITY": 0.01096221, "INCLINATION": 98.2142, "RA_OF_ASC_NODE": 27.7556, "ARG_OF_PERICENTER": 66.7393, "MEAN_ANOMALY": 348.8311, "EPHEMERIS_TYPE": 0, "CLASSIFICATION_TYPE": "U", "NORAD_CAT_ID": 30930, "ELEMENT_SET_NO": 999, "REV_AT_EPOCH": 98523, "BSTAR": 0.00033220225, "MEAN_MOTION_DOT": 1.022e-05, "MEAN_MOTION_DDOT": 0}, "tle": {"line1": "1 30930U 99025AZU 25360.05579465  .00001022  00000+0  33220-3 0  9994", "line2": "2 30930  98.2142  27.7556 0109622  66.7393 348.8311 14.37418558985230"}}, "geometry": {"type": "Point", "coordinates": [31.107791656894968, -12.498370449363495]}}, {"type": "Feature", "properties": {"norad_id": 30931, "name": "FENGYUN 1C DEB", "group": "fengyun-1c-debris", "lat": 60.77731284731787, "lon": 42.46697012679991, "alt_km": 850.3320971120002, "timestamp": "2025-12-27T15:27:11.470275+00:00", "meta": {"OBJECT_NAME": "FENGYUN 1C DEB", "OBJECT_ID": "1999-025AZV", "EPOCH": "2025-12-27T03:18:07.686144", "MEAN_MOTION": 14.0153859, "ECCENTRICITY": 0.00925689, "INCLINATION": 99.17, "RA_OF_ASC_NODE": 58.7416, "ARG_OF_PERICENTER": 1.684, "MEAN_ANOMALY": 26.4361, "EPHEMERIS_TYPE": 0, "CLASSIFICATION_TYPE": "U", "NORAD_CAT_ID": 30931, "ELEMENT_SET_NO": 999, "REV_AT_EPOCH": 96127, "BSTAR": 0.00060758098, "MEAN_MOTION_DOT": 9.08e-06, "MEAN_MOTION_DDOT": 0}, "tle": {"line1": "1 30931U 99025AZV 25361.13758896  .00000908  00000+0  60758-3 0  9990", "line2": "2 30931  99.1700  58.7416 0092568   1.6840  26.4361 14.01538590961277"}}, "geometry": {"type": "Point", "coordinates": [42.46697012679991, 60.77731284731787]}}, {"type": "Feature", "properties": {"norad_id": 30932, "name": "FENGYUN 1C DEB", "group": "fengyun-1c-debris", "lat": -81.0847970153573, "lon": 25.186020024583136, "alt_km": 771.0595855091888, "timestamp": "2025-12-27T15:27:11.470284+00:00", "meta": {"OBJECT_NAME": "FENGYUN 1C DEB", "OBJECT_ID": "1999-025AZW", "EPOCH": "2025-12-26T06:12:58.933152", "MEAN_MOTION": 14.26972307, "ECCENTRICITY": 0.0056088, "INCLINATION": 98.9094, "RA_OF_ASC_NODE": 293.4078, "ARG_OF_PERICENTER": 254.8173, "MEAN_ANOMALY": 104.6799, "EPHEMERIS_TYPE": 0, "CLASSIFICATION_TYPE": "U", "NORAD_CAT_ID": 30932, "ELEMENT_SET_NO": 999, "REV_AT_EPOCH": 96587, "BSTAR": 0.0026115, "MEAN_MOTION_DOT": 6.416e-05, "MEAN_MOTION_DDOT": 0}, "tle": {"line1": "1 30932U 99025AZW 25360.25901543  .00006416  00000+0  26115-2 0  9990", "line2": "2 30932  98.9094 293.4078 0056088 254.8173 104.6799 14.26972307965870"}}, "geometry": {"type": "Point", "coordinates": [25.186020024583136, -81.0847970153573]}}, {"type": "Feature", "properties": {"norad_id": 30933, "name": "FENGYUN 1C DEB", "group": "fengyun-1c-debris", "lat": -26.190506470589636, "lon": -10.616667973065194, "alt_km": 742.4927214168347, "timestamp": "2025-12-27T15:27:11.470295+00:00", "meta": {"OBJECT_NAME": "FENGYUN 1C DEB", "OBJECT_ID": "1999-025AZX", "EPOCH": "2025-12-26T21:28:56.424864", "MEAN_MOTION": 14.36888165, "ECCENTRICITY": 0.007504, "INCLINATION": 99.0489, "RA_OF_ASC_NODE": 344.1009, "ARG_OF_PERICENTER": 281.8419, "MEAN_ANOMALY": 139.8748, "EPHEMERIS_TYPE": 0, "CLASSIFICATION_TYPE": "U", "NORAD_CAT_ID": 30933, "ELEMENT_SET_NO": 999, "REV_AT_EPOCH": 96075, "BSTAR": 0.0058013, "MEAN_MOTION_DOT": 0.00017718, "MEAN_MOTION_DDOT": 0}, "tle": {"line1": "1 30933U 99025AZX 25360.89509751  .00017718  00000+0  58013-2 0  9995", "line2": "2 30933  99.0489 344.1009 0075040 281.8419 139.8748 14.36888165960756"}}, "geometry": {"type": "Point", "coordinates": [-10.616667973065194, -26.190506470589636]}}, {"type": "Feature", "properties": {"norad_id": 30934, "name": "FENGYUN 1C DEB", "group": "fengyun-1c-debris", "lat": 41.95540070098431, "lon": 64.78828290624095, "alt_km": 1088.5893946539636, "timestamp": "2025-12-27T15:27:11.470305+00:00", "meta": {"OBJECT_NAME": "FENGYUN 1C DEB", "OBJECT_ID": "1999-025AZY", "EPOCH": "2025-12-26T06:42:49.499712", "MEAN_MOTION": 13.46792195, "ECCENTRICITY": 0.0341396, "INCLINATION": 98.7654, "RA_OF_ASC_NODE": 235.6189, "ARG_OF_PERICENTER": 47.0677, "MEAN_ANOMALY": 315.8571, "EPHEMERIS_TYPE": 0, "CLASSIFICATION_TYPE": "U", "NORAD_CAT_ID": 30934, "ELEMENT_SET_NO": 999, "REV_AT_EPOCH": 91890, "BSTAR": 0.0022203, "MEAN_MOTION_DOT": 1.88e-05, "MEAN_MOTION_DDOT": 0}, "tle": {"line1": "1 30934U 99025AZY 25360.27973958  .00001880  00000+0  22203-2 0  9997", "line2": "2 30934  98.7654 235.6189 0341396  47.0677 315.8571 13.46792195918905"}}, "geometry": {"type": "Point", "coordinates": [64.78828290624095, 41.95540070098431]}}, {"type": "Feature", "properties": {"norad_id": 30936, "name": "FENGYUN 1C DEB", "group": "fengyun-1c-debris", "lat": -47.563512335333996, "lon": 41.5800412899013, "alt_km": 806.5582235311831, "timestamp": "2025-12-27T15:27:11.470315+00:00", "meta": {"OBJECT_NAME": "FENGYUN 1C DEB", "OBJECT_ID": "1999-025BAA", "EPOCH": "2025-12-25T22:04:31.178784", "MEAN_MOTION": 14.23402013, "ECCENTRICITY": 0.0046149, "INCLINATION": 98.5806, "RA_OF_ASC_NODE": 30.3937, "ARG_OF_PERICENTER": 251.6756, "MEAN_ANOMALY": 230.0536, "EPHEMERIS_TYPE": 0, "CLASSIFICATION_TYPE": "U", "NORAD_CAT_ID": 30936, "ELEMENT_SET_NO": 999, "REV_AT_EPOCH": 97320, "BSTAR": 0.00046152, "MEAN_MOTION_DOT": 1.016e-05, "MEAN_MOTION_DDOT": 0}, "tle": {"line1": "1 30936U 99025BAA 25359.91980531  .00001016  00000+0  46152-3 0  9994", "line2": "2 30936  98.5806  30.3937 0046149 251.6756 230.0536 14.23402013973200"}}, "geometry": {"type": "Point", "coordinates": [41.5800412899013, -47.563512335333996]}}, {"type": "Feature", "properties": {"norad_id": 30937, "name": "FENGYUN 1C DEB", "group": "fengyun-1c-debris", "lat": 80.13627651734055, "lon": -59.21760586084622, "alt_km": 892.8428074770827, "timestamp": "2025-12-27T15:27:11.470325+00:00", "meta": {"OBJECT_NAME": "FENGYUN 1C DEB", "OBJECT_ID": "1999-025BAB", "EPOCH": "2025-12-27T01:32:31.505856", "MEAN_MOTION": 13.95588481, "ECCENTRICITY": 0.00751437, "INCLINATION": 99.0868, "RA_OF_ASC_NODE": 53.2245, "ARG_OF_PERICENTER": 14.2792, "MEAN_ANOMALY": 48.1634, "EPHEMERIS_TYPE": 0, "CLASSIFICATION_TYPE": "U", "NORAD_CAT_ID": 30937, "ELEMENT_SET_NO": 999, "REV_AT_EPOCH": 95916, "BSTAR": -8.220094e-06, "MEAN_MOTION_DOT": -5.5e-07, "MEAN_MOTION_DDOT": 0}, "tle": {"line1": "1 30937U 99025BAB 25361.06425354 -.00000055  00000+0 -82201-5 0  9992", "line2": "2 30937  99.0868  53.2245 0075143  14.2792  48.1634 13.95588481959168"}}, "geometry": {"type": "Point", "coordinates": [-59.21760586084622, 80.13627651734055]}}, {"type": "Feature", "properties": {"norad_id": 30938, "name": "FENGYUN 1C DEB", "group": "fengyun-1c-debris", "lat": 33.57949306106069, "lon": 8.937315425532235, "alt_km": 825.8473777580921, "timestamp": "2025-12-27T15:27:11.470335+00:00", "meta": {"OBJECT_NAME": "FENGYUN 1C DEB", "OBJECT_ID": "1999-025BAC", "EPOCH": "2025-12-27T00:19:35.511744", "MEAN_MOTION": 14.19840863, "ECCENTRICITY": 0.00453587, "INCLINATION": 98.5903, "RA_OF_ASC_NODE": 14.0851, "ARG_OF_PERICENTER": 301.9588, "MEAN_ANOMALY": 111.831, "EPHEMERIS_TYPE": 0, "CLASSIFICATION_TYPE": "U", "NORAD_CAT_ID": 30938, "ELEMENT_SET_NO": 999, "REV_AT_EPOCH": 97322, "BSTAR": 0.00039166725, "MEAN_MOTION_DOT": 7.96e-06, "MEAN_MOTION_DDOT": 0}, "tle": {"line1": "1 30938U 99025BAC 25361.01360546  .00000796  00000+0  39167-3 0  9990", "line2": "2 30938  98.5903  14.0851 0045358 301.9588 111.8310 14.19840863973229"}}, "geometry": {"type": "Point", "coordinates": [8.937315425532235, 33.57949306106069]}}, {"type": "Feature", "properties": {"norad_id": 30940, "name": "FENGYUN 1C DEB", "group": "fengyun-1c-debris", "lat": 60.570438517226854, "lon": -14.275263452961651, "alt_km": 864.3866923632722, "timestamp": "2025-12-27T15:27:11.470345+00:00", "meta": {"OBJECT_NAME": "FENGYUN 1C DEB", "OBJECT_ID": "1999-025BAE", "EPOCH": "2025-12-22T05:52:00.054912", "MEAN_MOTION": 14.08319135, "ECCENTRICITY": 0.00407229, "INCLINATION": 98.6214, "RA_OF_ASC_NODE": 356.1653, "ARG_OF_PERICENTER": 336.7041, "MEAN_ANOMALY": 84.9821, "EPHEMERIS_TYPE": 0, "CLASSIFICATION_TYPE": "U", "NORAD_CAT_ID": 30940, "ELEMENT_SET_NO": 999, "REV_AT_EPOCH": 96266, "BSTAR": 0.00045494688, "MEAN_MOTION_DOT": 7.42e-06, "MEAN_MOTION_DDOT": 0}, "tle": {"line1": "1 30940U 99025BAE 25356.24444508  .00000742  00000+0  45495-3 0  9995", "line2": "2 30940  98.6214 356.1653 0040722 336.7041  84.9821 14.08319135962662"}}, "geometry": {"type": "Point", "coordinates": [-14.275263452961651, 60.570438517226854]}}]}